MEAN_MOTION;ECCENTRICITY;INCLINATION;RA_OF_ASC_NODE;ARG_OF_PERICENTER;MEAN_ANOMALY;BSTAR;MEAN_MOTION_DOT;MEAN_MOTION_DDOT;TYPE
14.34218809;0.0002333;86.4011;21.1178;96.3806;263.7656;1.5916E-5;6.4E-7;0;Iridium
14.34218881;0.0002346;86.4011;20.9139;96.4751;263.6712;1.6085E-5;6.5E-7;0;Iridium
14.34218881;0.0002346;86.4011;20.9139;96.4751;263.6712;1.6085E-5;6.5E-7;0;Iridium
14.34218915;0.000236;86.4012;20.71;96.4074;263.7391;1.4368E-5;6.0E-7;0;Iridium
14.34218961;0.0002368;86.4012;20.5061;95.8953;264.2513;1.3944E-5;5.9E-7;0;Iridium
14.34218979;0.0002388;86.4013;20.3022;95.8306;264.3162;1.2094E-5;5.4E-7;0;Iridium
14.34219017;0.0002395;86.4014;20.0982;95.2906;264.8563;1.1339E-5;5.2E-7;0;Iridium
14.34219065;0.0002403;86.4014;19.9235;95.2131;264.9339;1.2032E-5;5.3E-7;0;Iridium
14.34219166;0.0002413;86.4015;19.6904;95.1969;264.9502;1.4128E-5;5.9E-7;0;Iridium
14.34219291;0.0002427;86.4016;19.3117;94.9505;265.1968;1.7097E-5;6.8E-7;0;Iridium
14.34219355;0.0002435;86.4016;19.0787;94.5866;265.5608;1.6916E-5;6.7E-7;0;Iridium
14.34219409;0.0002438;86.4017;18.8747;94.3729;265.7746;1.8752E-5;7.2E-7;0;Iridium
14.34219409;0.0002438;86.4017;18.8747;94.3729;265.7746;1.8752E-5;7.2E-7;0;Iridium
14.34219385;0.0002463;86.4017;18.6418;94.369;265.7787;1.6198E-5;6.5E-7;0;Iridium
14.34219429;0.0002467;86.4018;18.4378;94.2023;265.9454;1.7487E-5;6.9E-7;0;Iridium
14.34219429;0.0002467;86.4018;18.4378;94.2023;265.9454;1.7487E-5;6.9E-7;0;Iridium
14.34219449;0.0002477;86.4018;18.2339;93.919;266.2289;1.6811E-5;6.7E-7;0;Iridium
14.3421607;0.0002529;86.4019;17.7969;92.6863;267.4623;8.2031E-6;4.3E-7;0;Iridium
14.34216102;0.000254;86.4019;17.5056;92.3705;267.7781;5.7224E-6;3.6E-7;0;Iridium
14.3421613;0.0002539;86.4019;17.4182;92.2864;267.8623;5.758E-6;3.6E-7;0;Iridium
14.34216137;0.0002546;86.402;17.127;91.9781;268.1706;3.8961E-6;3.1E-7;0;Iridium
14.34216235;0.0002547;86.402;16.9522;91.7834;268.3653;1.3114E-5;5.7E-7;0;Iridium
14.34216358;0.0002552;86.402;16.6901;91.5147;268.6341;1.9714E-5;7.5E-7;0;Iridium
14.34216381;0.0002554;86.402;16.5445;91.409;268.7399;1.7694E-5;6.9E-7;0;Iridium
14.34216436;0.000256;86.4021;16.2824;91.1332;269.0157;1.736E-5;6.8E-7;0;Iridium
14.34216438;0.0002561;86.4021;16.2533;91.112;269.0369;1.7121E-5;6.8E-7;0;Iridium
14.34216438;0.0002563;86.4021;16.1368;90.9331;269.2159;1.4302E-5;6.0E-7;0;Iridium
14.34216496;0.0002572;86.4021;15.8746;90.6352;269.5139;1.4942E-5;6.2E-7;0;Iridium
14.34216491;0.0002573;86.4021;15.8455;90.5227;269.6263;1.3835E-5;5.9E-7;0;Iridium
14.34216518;0.0002573;86.4021;15.6999;90.4002;269.7489;1.2539E-5;5.5E-7;0;Iridium
14.34216674;0.0002579;86.4021;15.4378;90.0052;270.1439;1.796E-5;7.0E-7;0;Iridium
14.34216674;0.0002579;86.4021;15.4378;90.0052;270.1439;1.796E-5;7.0E-7;0;Iridium
14.34216731;0.0002579;86.4022;15.2922;89.9056;270.2436;1.7927E-5;7.0E-7;0;Iridium
14.34216731;0.0002579;86.4022;15.2922;89.9056;270.2436;1.7927E-5;7.0E-7;0;Iridium
14.34216834;0.0002582;86.4022;14.8845;89.3899;270.7593;1.6788E-5;6.7E-7;0;Iridium
14.34216904;0.0002586;86.4023;14.7971;89.371;270.7782;2.0691E-5;7.8E-7;0;Iridium
14.34216916;0.0002591;86.4023;14.5932;88.9006;271.2486;1.7466E-5;6.9E-7;0;Iridium
14.34216944;0.0002594;86.4023;14.4476;88.7658;271.3835;1.6689E-5;6.7E-7;0;Iridium
14.34216973;0.0002601;86.4023;14.1855;88.4734;271.676;1.4684E-5;6.1E-7;0;Iridium
14.34217019;0.0002599;86.4023;14.0399;88.4105;271.7388;1.5512E-5;6.3E-7;0;Iridium
14.34217033;0.0002604;86.4023;13.7778;87.922;272.2274;1.3093E-5;5.6E-7;0;Iridium
14.34217053;0.0002603;86.4024;13.6322;87.8895;272.2598;1.2181E-5;5.4E-7;0;Iridium
14.3421708;0.0002614;86.4024;13.3702;87.331;272.8185;1.1592E-5;5.2E-7;0;Iridium
14.34217149;0.0002613;86.4024;13.1954;87.3372;272.8123;1.5037E-5;6.2E-7;0;Iridium
14.34217247;0.0002618;86.4024;12.9333;86.7752;273.3744;1.8221E-5;7.1E-7;0;Iridium
14.34217333;0.0002617;86.4024;12.7877;86.6724;273.4771;2.1672E-5;8.0E-7;0;Iridium
14.34217483;0.0002618;86.4024;12.5256;86.2251;273.9244;2.7683E-5;9.7E-7;0;Iridium
14.34217491;0.0002619;86.4024;12.4965;86.2059;273.9436;2.8053E-5;9.8E-7;0;Iridium
14.34217534;0.0002617;86.4024;12.38;86.0651;274.0844;2.8012E-5;9.8E-7;0;Iridium
14.34217589;0.0002619;86.4024;12.0888;85.6819;274.4676;2.6619E-5;9.4E-7;0;Iridium
14.34217604;0.0002623;86.4023;11.9432;85.4969;274.6527;2.4443E-5;8.8E-7;0;Iridium
14.34217611;0.0002624;86.4023;11.8849;85.3652;274.7843;2.3882E-5;8.7E-7;0;Iridium
14.34217719;0.0002622;86.4023;11.5354;84.9051;275.2444;2.352E-5;8.6E-7;0;Iridium
14.34217763;0.0002618;86.4023;11.4189;84.809;275.3405;2.4527E-5;8.8E-7;0;Iridium
14.34217772;0.0002616;86.4022;11.3898;84.7473;275.4021;2.4128E-5;8.7E-7;0;Iridium
14.34217868;0.0002615;86.4022;11.1568;84.4131;275.7363;2.5089E-5;9.0E-7;0;Iridium
14.34217943;0.0002607;86.4022;10.953;84.0338;276.1155;2.5436E-5;9.1E-7;0;Iridium
14.34217943;0.0002607;86.4022;10.953;84.0338;276.1155;2.5436E-5;9.1E-7;0;Iridium
14.34218007;0.0002603;86.4021;10.7491;83.8219;276.3273;2.4544E-5;8.9E-7;0;Iridium
14.34218083;0.0002595;86.4021;10.5453;83.4785;276.6706;2.4837E-5;8.9E-7;0;Iridium
14.34218329;0.0002584;86.4021;10.1375;83.0122;277.1367;2.8624E-5;1.0E-6;0;Iridium
14.34218362;0.0002583;86.402;9.9045;82.6114;277.5375;2.4431E-5;8.8E-7;0;Iridium
14.34218437;0.0002573;86.402;9.7298;82.3611;277.7877;2.4812E-5;8.9E-7;0;Iridium
14.34218496;0.0002568;86.402;9.5259;82.1328;278.0159;2.3419E-5;8.5E-7;0;Iridium
14.34218634;0.0002564;86.402;9.2638;82.0399;278.1087;2.5025E-5;9.0E-7;0;Iridium
14.34218666;0.000256;86.4019;9.1182;81.9211;278.2275;2.367E-5;8.6E-7;0;Iridium
14.34218666;0.000256;86.4019;9.0599;81.9137;278.2349;2.2554E-5;8.3E-7;0;Iridium
14.34218793;0.0002558;86.4019;8.7105;81.7428;278.4058;2.2869E-5;8.4E-7;0;Iridium
14.3421878;0.0002569;86.4019;8.6231;81.5769;278.5718;2.0882E-5;7.8E-7;0;Iridium
14.34218806;0.0002567;86.4018;8.4775;81.2984;278.8502;1.9883E-5;7.5E-7;0;Iridium
14.34218875;0.0002564;86.4017;8.2444;80.953;279.1955;1.9517E-5;7.4E-7;0;Iridium
14.34218916;0.0002552;86.4017;8.0405;80.7439;279.4045;1.9366E-5;7.4E-7;0;Iridium
14.34218916;0.0002552;86.4017;8.0405;80.7439;279.4045;1.9366E-5;7.4E-7;0;Iridium
14.34218939;0.0002552;86.4017;7.8366;80.268;279.8804;1.789E-5;7.0E-7;0;Iridium
14.34219093;0.0002539;86.4016;7.3996;80.0495;280.0987;2.0648E-5;7.8E-7;0;Iridium
14.34219275;0.0002524;86.4015;6.9918;79.5655;280.5825;2.5196E-5;9.0E-7;0;Iridium
14.34219345;0.0002512;86.4015;6.7879;79.333;280.8149;2.6617E-5;9.4E-7;0;Iridium
14.34219345;0.0002512;86.4015;6.7879;79.333;280.8149;2.6617E-5;9.4E-7;0;Iridium
14.34219368;0.0002507;86.4014;6.5548;79.1304;281.0174;2.4626E-5;8.9E-7;0;Iridium
14.34219447;0.0002496;86.4014;6.3509;78.9164;281.2312;2.5952E-5;9.2E-7;0;Iridium
14.34219447;0.0002496;86.4014;6.3509;78.9164;281.2312;2.5952E-5;9.2E-7;0;Iridium
14.34219487;0.000249;86.4013;6.147;78.9714;281.1762;2.4867E-5;8.9E-7;0;Iridium
14.34219619;0.0002478;86.4012;5.7974;78.563;281.5844;2.5726E-5;9.2E-7;0;Iridium
14.34219606;0.000248;86.4012;5.7391;78.6634;281.484;2.393E-5;8.7E-7;0;Iridium
14.34219757;0.0002467;86.4011;5.3604;77.8536;282.2936;2.4397E-5;8.8E-7;0;Iridium
14.34219761;0.0002466;86.4011;5.3313;77.843;282.3042;2.3911E-5;8.7E-7;0;Iridium
14.34219816;0.0002454;86.401;5.1273;77.4395;282.7076;2.2878E-5;8.4E-7;0;Iridium
14.34219816;0.0002454;86.401;5.1273;77.4395;282.7076;2.2878E-5;8.4E-7;0;Iridium
14.3421989;0.0002443;86.401;4.9234;77.1468;283;2.2575E-5;8.3E-7;0;Iridium
14.34219905;0.0002427;86.4009;4.7194;76.9575;283.1892;2.0133E-5;7.6E-7;0;Iridium
14.34220019;0.0002408;86.4008;4.3698;76.7167;283.4297;2.0305E-5;7.7E-7;0;Iridium
14.34206292;0.0004706;86.4021;4.3146;59.8224;300.3438;1.9623E-5;7.5E-7;0;Iridium
14.34206292;0.0004706;86.4021;4.3146;59.8224;300.3438;1.9623E-5;7.5E-7;0;Iridium
14.34215928;0.0002451;86.4008;4.0786;80.4917;279.6556;1.8166E-5;7.1E-7;0;Iridium
14.34215664;0.0002402;86.4006;3.6706;76.7168;283.4295;1.4277E-5;6.0E-7;0;Iridium
14.34215658;0.0002403;86.4006;3.6415;76.5939;283.5525;1.4082E-5;5.9E-7;0;Iridium
14.34215619;0.0002391;86.4004;3.3209;76.2775;283.8687;-2.8182E-6;1.2E-7;0;Iridium
14.34215651;0.0002381;86.4004;3.1751;76.364;283.7821;-3.1246E-6;1.1E-7;0;Iridium
14.34215893;0.0002365;86.4003;2.8837;76.2106;283.9353;1.8001E-5;7.0E-7;0;Iridium
14.34215927;0.0002357;86.4004;2.7672;76.1999;283.9459;1.9833E-5;7.5E-7;0;Iridium
14.34216012;0.0002338;86.4002;2.4466;75.8601;284.2854;1.8783E-5;7.2E-7;0;Iridium
14.34216016;0.0002332;86.4002;2.3592;75.8589;284.2866;1.9009E-5;7.3E-7;0;Iridium
14.34216083;0.0002315;86.4001;2.0969;75.5362;284.6091;1.9904E-5;7.6E-7;0;Iridium
14.34216141;0.0002302;86.4001;1.9221;75.5226;284.6225;2.1178E-5;7.9E-7;0;Iridium
14.34216176;0.0002288;86.4;1.6889;75.4212;284.7237;2.0266E-5;7.7E-7;0;Iridium
14.34216207;0.0002274;86.3999;1.5141;75.512;284.6328;1.9688E-5;7.5E-7;0;Iridium
14.3421629;0.0002262;86.3998;1.31;75.4213;284.7233;2.2126E-5;8.2E-7;0;Iridium
14.34216311;0.0002256;86.3998;1.2226;75.3454;284.7992;2.1709E-5;8.1E-7;0;Iridium
14.3421632;0.0002248;86.3998;1.106;75.4469;284.6976;2.1774E-5;8.1E-7;0;Iridium
14.34216384;0.0002234;86.3996;0.8437;75.2491;284.8952;2.1973E-5;8.1E-7;0;Iridium
14.34216396;0.0002231;86.3996;0.8146;75.2454;284.8988;2.186E-5;8.1E-7;0;Iridium
14.34216451;0.0002227;86.3996;0.6688;75.4244;284.7199;2.3361E-5;8.5E-7;0;Iridium
14.34216554;0.0002214;86.3995;0.4356;75.2987;284.8454;2.5833E-5;9.2E-7;0;Iridium
14.34216588;0.0002209;86.3994;0.3774;75.2695;284.8746;2.6121E-5;9.3E-7;0;Iridium
14.34216588;0.0002209;86.3994;0.3774;75.2695;284.8746;2.6121E-5;9.3E-7;0;Iridium
14.3421665;0.0002203;86.3994;0.2608;75.3191;284.8249;2.8313E-5;9.9E-7;0;Iridium
14.34216799;0.0002182;86.3992;359.9401;75.249;284.8947;2.8981E-5;1.01E-6;0;Iridium
14.34216806;0.000218;86.3992;359.9109;75.2633;284.8804;2.8932E-5;1.01E-6;0;Iridium
14.34216886;0.0002166;86.3991;359.6486;75.1666;284.977;2.821E-5;9.9E-7;0;Iridium
14.34216928;0.0002157;86.3991;359.5028;75.1243;285.0191;2.6227E-5;9.3E-7;0;Iridium
14.34217021;0.0002135;86.3989;359.153;74.9407;285.2025;2.3796E-5;8.6E-7;0;Iridium
